[{"OBJECT_NAME":"IRIDIUM 174","OBJECT_ID":"2023-068U","EPOCH":"2026-03-09T22:04:44.769504","MEAN_MOTION":14.7225064,"ECCENTRICITY":0.00025981,"INCLINATION":86.6101,"RA_OF_ASC_NODE":35.1661,"ARG_OF_PERICENTER":80.0805,"MEAN_ANOMALY":280.0705,"EPHEMERIS_TYPE":0,"CLASSIFICATION_TYPE":"U","NORAD_CAT_ID":56728,"ELEMENT_SET_NO":999,"REV_AT_EPOCH":15141,"BSTAR":0.00022876362,"MEAN_MOTION_DOT":1.467e-5,"MEAN_MOTION_DDOT":0},{"OBJECT_NAME":"FENGYUN 1C DEB","OBJECT_ID":"1999-025EKP","EPOCH":"2026-03-01T02:01:53.163840","MEAN_MOTION":14.7642252,"ECCENTRICITY":0.00219391,"INCLINATION":99.0484,"RA_OF_ASC_NODE":283.3547,"ARG_OF_PERICENTER":117.4166,"MEAN_ANOMALY":37.3398,"EPHEMERIS_TYPE":0,"CLASSIFICATION_TYPE":"U","NORAD_CAT_ID":37595,"ELEMENT_SET_NO":999,"REV_AT_EPOCH":63759,"BSTAR":0.0046491705,"MEAN_MOTION_DOT":0.00032541,"MEAN_MOTION_DDOT":0}]
